[{"Settings":{"ShopId":2,"OrderDeliveryMethod":0,"AcceptingOrders":true,"Id":1,"IsDemo":false},"Address":"Test","City":"Test","DeliveryEmailAddress":"test@test.com","DeliveryPhoneNumber":"123123","IsDeleted":true,"Name":"Test","SoldBy":"Text","State":"AK","Zip":"1234567","Id":2,"IsDemo":false},{"Settings":{"ShopId":3,"OrderDeliveryMethod":0,"AcceptingOrders":false,"Id":2,"IsDemo":false},"Address":"test","City":"test","DeliveryEmailAddress":"test@test.com","DeliveryPhoneNumber":"123123","IsDeleted":true,"Name":"test","SoldBy":"123","State":"AK","Zip":"123123","Id":3,"IsDemo":false},{"Settings":{"ShopId":7,"OrderDeliveryMethod":0,"AcceptingOrders":true,"Id":3,"IsDemo":false},"Address":"90 Sterling Hwy","City":"Homer","DeliveryEmailAddress":"rahul98@gmail.com","DeliveryPhoneNumber":"+14085409275","IsDeleted":true,"Name":"Safeway","SoldBy":"rahul","State":"AK","Zip":"99603","Id":7,"IsDemo":false},{"Settings":{"ShopId":15,"OrderDeliveryMethod":0,"AcceptingOrders":true,"Id":4,"IsDemo":false},"Address":"Test","City":"Test","DeliveryEmailAddress":"ababintsev@basquare.com","DeliveryPhoneNumber":"12344567899","IsDeleted":true,"Name":"Real email shop","SoldBy":"test","State":"CO","Zip":"1234567","Id":15,"IsDemo":false},{"Settings":{"ShopId":16,"OrderDeliveryMethod":0,"AcceptingOrders":true,"Id":5,"IsDemo":false},"Address":"Offroad 32 ","City":"LA","DeliveryEmailAddress":"smyklushka@basquare.com","DeliveryPhoneNumber":"09876543","IsDeleted":true,"Name":"Sofia test","SoldBy":"test","State":"CO","Zip":"0987","Id":16,"IsDemo":false},{"Settings":{"ShopId":17,"OrderDeliveryMethod":0,"AcceptingOrders":true,"Id":6,"IsDemo":false},"Address":"blossom ave","City":"NY","DeliveryEmailAddress":"smyklushka@basquare.com","DeliveryPhoneNumber":"12345","IsDeleted":true,"Name":"Test_Sofia","SoldBy":"test","State":"AK","Zip":"4567","Id":17,"IsDemo":false},{"Settings":{"ShopId":18,"OrderDeliveryMethod":0,"AcceptingOrders":true,"Id":7,"IsDemo":false},"Address":"Offroad 32","City":"LA","DeliveryEmailAddress":"smyklushka@basquare.com","DeliveryPhoneNumber":"09876543","IsDeleted":true,"Name":"Sofia test","SoldBy":"test","State":"CA","Zip":"0987","Id":18,"IsDemo":false},{"Settings":{"ShopId":19,"OrderDeliveryMethod":0,"AcceptingOrders":true,"Id":8,"IsDemo":false},"Address":"Test","City":"Push","DeliveryEmailAddress":"test@test.com","DeliveryPhoneNumber":"+123456789","IsDeleted":true,"Name":"New Push Test","SoldBy":"asdqwe","State":"AL","Zip":"123456","Id":19,"IsDemo":false},{"Settings":{"ShopId":20,"OrderDeliveryMethod":1,"AcceptingOrders":true,"Id":9,"IsDemo":false},"Address":"QW","City":"QW","DeliveryEmailAddress":"smyklushka@basquare.com","DeliveryPhoneNumber":"+14085409275","IsDeleted":true,"Name":"Test Sms","SoldBy":"qwer","State":"AK","Zip":"098","Id":20,"IsDemo":false},{"Settings":{"ShopId":21,"OrderDeliveryMethod":1,"AcceptingOrders":true,"Id":10,"IsDemo":false},"Address":"qw","City":"qw","DeliveryEmailAddress":"smyklushka@basquare.com","DeliveryPhoneNumber":"+380508320910","IsDeleted":true,"Name":"Test sms","SoldBy":"qwer","State":"AK","Zip":"qw","Id":21,"IsDemo":false},{"Settings":{"ShopId":22,"OrderDeliveryMethod":0,"AcceptingOrders":true,"Id":11,"IsDemo":false},"Address":"qw","City":"qw","DeliveryEmailAddress":"smyklushka@basquare.com","DeliveryPhoneNumber":"+380508320910","IsDeleted":true,"Name":"test new","SoldBy":"qwer","State":"AK","Zip":"qw","Id":22,"IsDemo":false},{"Settings":{"ShopId":23,"OrderDeliveryMethod":0,"AcceptingOrders":true,"Id":12,"IsDemo":false},"Address":"qwe","City":"qwe","DeliveryEmailAddress":"qwe","DeliveryPhoneNumber":"qwe","IsDeleted":true,"Name":"test new","SoldBy":"qwe","State":"AK","Zip":"qwe","Id":23,"IsDemo":false},{"Settings":{"ShopId":24,"OrderDeliveryMethod":0,"AcceptingOrders":false,"Id":13,"IsDemo":false},"Address":"1234, mall st","City":"San Jose","DeliveryEmailAddress":"","DeliveryPhoneNumber":"","IsDeleted":true,"Name":"Push test shop","SoldBy":"rahul","State":"CA","Zip":"95112","Id":24,"IsDemo":false},{"Settings":{"ShopId":25,"OrderDeliveryMethod":1,"AcceptingOrders":true,"Id":14,"IsDemo":false},"Address":"1234 Mall st.","City":"San Jose","DeliveryEmailAddress":"","DeliveryPhoneNumber":"+14085409275","IsDeleted":true,"Name":"Push test shop","SoldBy":"rahul","State":"CA","Zip":"95112","Id":25,"IsDemo":false},{"Settings":{"ShopId":44,"OrderDeliveryMethod":0,"AcceptingOrders":true,"Id":33,"IsDemo":false},"Address":"440 S. Main St.","City":"Milpitas","DeliveryEmailAddress":"rahul98@gmail.com","DeliveryPhoneNumber":"+14085409275","IsDeleted":false,"Name":"New India Bazar","SoldBy":"Rahul","State":"CA","Zip":"95035","Id":44,"IsDemo":false},{"Settings":{"ShopId":45,"OrderDeliveryMethod":0,"AcceptingOrders":true,"Id":34,"IsDemo":false},"Address":"2213 El Camino Real","City":"Santa Clara","DeliveryEmailAddress":"rahul98@gmail.com","DeliveryPhoneNumber":"+14085409275","IsDeleted":false,"Name":"New India Bazar","SoldBy":"Rahul","State":"CA","Zip":"95050","Id":45,"IsDemo":false},{"Settings":{"ShopId":46,"OrderDeliveryMethod":1,"AcceptingOrders":true,"Id":35,"IsDemo":false},"Address":"1340 S Mary Ave.","City":"Sunnyvale","DeliveryEmailAddress":"rahul98@gmail.com","DeliveryPhoneNumber":"+14085409275","IsDeleted":true,"Name":"New India Bazar","SoldBy":"Rahul","State":"CA","Zip":"94087","Id":46,"IsDemo":false},{"Settings":{"ShopId":47,"OrderDeliveryMethod":0,"AcceptingOrders":false,"Id":36,"IsDemo":false},"Address":"4552 Dublin Blvd.","City":"Dublin","DeliveryEmailAddress":"rahul98@gmail.com","DeliveryPhoneNumber":"+14085409275+14085409275","IsDeleted":false,"Name":"New India bazar","SoldBy":"Rahul","State":"CA","Zip":"94568","Id":47,"IsDemo":false},{"Settings":{"ShopId":48,"OrderDeliveryMethod":0,"AcceptingOrders":true,"Id":37,"IsDemo":false},"Address":"5113 Mowry Ave","City":"Fremont","DeliveryEmailAddress":"rahul98@gmail.com","DeliveryPhoneNumber":"+14085409275","IsDeleted":false,"Name":"New India Bazar","SoldBy":"Rahul","State":"CA","Zip":"94538","Id":48,"IsDemo":false},{"Settings":{"ShopId":49,"OrderDeliveryMethod":0,"AcceptingOrders":true,"Id":38,"IsDemo":false},"Address":"as","City":"as","DeliveryEmailAddress":"smyklushka@basquare.com","DeliveryPhoneNumber":"","IsDeleted":true,"Name":"Sofia test","SoldBy":"as","State":"AK","Zip":"as","Id":49,"IsDemo":false},{"Settings":{"ShopId":50,"OrderDeliveryMethod":0,"AcceptingOrders":true,"Id":39,"IsDemo":false},"Address":"qwe","City":"asd","DeliveryEmailAddress":"smyklushka@basquare.com","DeliveryPhoneNumber":"","IsDeleted":true,"Name":"sofia test","SoldBy":"cfgg","State":"AK","Zip":"er","Id":50,"IsDemo":false},{"Settings":{"ShopId":51,"OrderDeliveryMethod":1,"AcceptingOrders":true,"Id":40,"IsDemo":false},"Address":"asd","City":"asd","DeliveryEmailAddress":"smyklushka@basquare.com","DeliveryPhoneNumber":"+14085409275","IsDeleted":true,"Name":"test sof","SoldBy":"as","State":"AK","Zip":"asd","Id":51,"IsDemo":false},{"Settings":{"ShopId":52,"OrderDeliveryMethod":0,"AcceptingOrders":false,"Id":41,"IsDemo":false},"Address":"street","City":"test city","DeliveryEmailAddress":"staras99@gmail.com","DeliveryPhoneNumber":"","IsDeleted":true,"Name":"test shop","SoldBy":"qwer","State":"AK","Zip":"123456","Id":52,"IsDemo":false},{"Settings":{"ShopId":53,"OrderDeliveryMethod":0,"AcceptingOrders":false,"Id":42,"IsDemo":false},"Address":"address","City":"test city","DeliveryEmailAddress":"a@a.d","DeliveryPhoneNumber":"","IsDeleted":true,"Name":"test 2","SoldBy":"rrtt","State":"AK","Zip":"123456","Id":53,"IsDemo":false},{"Settings":{"ShopId":54,"OrderDeliveryMethod":0,"AcceptingOrders":false,"Id":43,"IsDemo":false},"Address":"`zx","City":"asd","DeliveryEmailAddress":"a@a.a","DeliveryPhoneNumber":"","IsDeleted":true,"Name":"test3","SoldBy":"sdf","State":"AK","Zip":"12345","Id":54,"IsDemo":false},{"Settings":{"ShopId":55,"OrderDeliveryMethod":0,"AcceptingOrders":true,"Id":44,"IsDemo":false},"Address":"1340 S Mary Ave.","City":"Sunnyvale","DeliveryEmailAddress":"rahul98@gmail.com","DeliveryPhoneNumber":"+14085409275","IsDeleted":false,"Name":"New India Bazar","SoldBy":"Rahul","State":"CA","Zip":"94087","Id":55,"IsDemo":false},{"Settings":{"ShopId":56,"OrderDeliveryMethod":0,"AcceptingOrders":true,"Id":45,"IsDemo":false},"Address":"345 Meadowhaven way","City":"Milpitas","DeliveryEmailAddress":"rahul98@gmail.com","DeliveryPhoneNumber":"+14085409275","IsDeleted":false,"Name":"Harish\u0027sstore","SoldBy":"Rahul","State":"CA","Zip":"95035","Id":56,"IsDemo":false},{"Settings":{"ShopId":57,"OrderDeliveryMethod":0,"AcceptingOrders":true,"Id":46,"IsDemo":false},"Address":"qwer","City":"qwer","DeliveryEmailAddress":"smyklushka@basquare.com","DeliveryPhoneNumber":"","IsDeleted":true,"Name":"qwer","SoldBy":"qwer","State":"AK","Zip":"qwer","Id":57,"IsDemo":false},{"Settings":{"ShopId":58,"OrderDeliveryMethod":0,"AcceptingOrders":true,"Id":47,"IsDemo":false},"Address":"яччс","City":"ячсм","DeliveryEmailAddress":"smyklushka@basquare.com","DeliveryPhoneNumber":"","IsDeleted":true,"Name":"софія","SoldBy":"???","State":"AK","Zip":"ячсм","Id":58,"IsDemo":false},{"Settings":{"ShopId":59,"OrderDeliveryMethod":0,"AcceptingOrders":true,"Id":48,"IsDemo":false},"Address":"яччс","City":"ячсм","DeliveryEmailAddress":"smyklushka@basquare.com","DeliveryPhoneNumber":"","IsDeleted":true,"Name":"софія","SoldBy":"???","State":"AK","Zip":"ячсм","Id":59,"IsDemo":false}]